[21pgiacobinizinner]
absolute_magnitude=9
albedo=0.1
color=1.0, 1.0, 1.0
coord_func=comet_orbit
dust_brightnessfactor=1.5
dust_lengthfactor=0.40000000000000002
dust_widthfactor=1.5
lighting=false
name=21P/Giacobini-Zinner
orbit_ArgOfPericenter=172.5746
orbit_AscendingNode=195.42070000000001
orbit_Eccentricity=0.70903400000000005
orbit_Inclination=32.011899999999997
orbit_PericenterDistance=1.0213540000000001
orbit_TimeAtPericenter=2458372.3067939817
orbit_good=188
orbit_visualization_period=2404.178356421895
parent=Sun
radius=5
slope_parameter=6
tex_map=nomap.png
type=comet

[2250882007or10]
absolute_magnitude=2
albedo=0.19
color=1., 1., 1.
coord_func=comet_orbit
lighting=true
minor_planet_number=225088
name=2007 OR10
orbit_ArgOfPericenter=207.05238
orbit_AscendingNode=336.82029
orbit_Eccentricity=0.50649040000000001
orbit_Epoch=2457800.5
orbit_Inclination=30.903849999999998
orbit_MeanAnomaly=104.40425
orbit_MeanMotion=0.0017947
orbit_SemiMajorAxis=67.061821699999996
orbit_visualization_period=200359.5922844264
parent=Sun
radius=1367
slope_parameter=0.15
tex_map=nomap.png
type=scattered disc object

[2297622007uk126]
absolute_magnitude=3.4
albedo=0.15
color=1.0, 1.0, 1.0
coord_func=comet_orbit
lighting=false
minor_planet_number=229762
name=2007 UK126
orbit_ArgOfPericenter=346.81738999999999
orbit_AscendingNode=131.22041999999999
orbit_Eccentricity=0.4881453
orbit_Epoch=2457800.5
orbit_Inclination=23.352229999999999
orbit_MeanAnomaly=343.11759999999998
orbit_MeanMotion=0.0015738900000000001
orbit_SemiMajorAxis=73.195991599999999
orbit_visualization_period=229391.7676963096
parent=Sun
radius=717
slope_parameter=0.15
tex_map=nomap.png
type=scattered disc object

[22pkopff]
absolute_magnitude=3
albedo=0.1
color=1.0, 1.0, 1.0
coord_func=comet_orbit
dust_brightnessfactor=1.5
dust_lengthfactor=0.40000000000000002
dust_widthfactor=1.5
lighting=false
name=22P/Kopff
orbit_ArgOfPericenter=162.89320000000001
orbit_AscendingNode=120.8651
orbit_Eccentricity=0.54789500000000002
orbit_Inclination=4.7370000000000001
orbit_PericenterDistance=1.55785
orbit_TimeAtPericenter=2457320.6123958332
orbit_good=355
orbit_visualization_period=2336.368836576688
parent=Sun
radius=5
slope_parameter=10.4
tex_map=nomap.png
type=comet

[230plinear]
absolute_magnitude=13
albedo=0.1
color=1.0, 1.0, 1.0
coord_func=comet_orbit
dust_brightnessfactor=1.5
dust_lengthfactor=0.40000000000000002
dust_widthfactor=1.5
lighting=false
name=230P/LINEAR
orbit_ArgOfPericenter=309.07600000000002
orbit_AscendingNode=112.301
orbit_Eccentricity=0.563581
orbit_Inclination=14.642099999999999
orbit_PericenterDistance=1.4854480000000001
orbit_TimeAtPericenter=2457344.7952893521
orbit_good=330
orbit_visualization_period=2292.016040910426
parent=Sun
radius=5
slope_parameter=4
tex_map=nomap.png
type=comet

[243ida]
absolute_magnitude=9.94
albedo=0.15
color=1.0, 1.0, 1.0
coord_func=comet_orbit
lighting=false
minor_planet_number=243
name=Ida
model=243ida_MLfix.obj
orbit_ArgOfPericenter=110.3175
orbit_AscendingNode=324.0286
orbit_Eccentricity=0.041485
orbit_Epoch=2456800.5
orbit_Inclination=1.1322
orbit_MeanAnomaly=236.46
orbit_MeanMotion=0.2035131
orbit_SemiMajorAxis=2.862472
parent=Sun
radius=36
slope_parameter=0.15
tex_map=ida.png
type=asteroid

[24pschaumasse]
absolute_magnitude=6.5
albedo=0.1
color=1.0, 1.0, 1.0
coord_func=comet_orbit
dust_brightnessfactor=1.5
dust_lengthfactor=0.40000000000000002
dust_widthfactor=1.5
lighting=false
name=24P/Schaumasse
orbit_ArgOfPericenter=58.042999999999999
orbit_AscendingNode=79.636200000000002
orbit_Eccentricity=0.70470200000000005
orbit_Inclination=11.733599999999999
orbit_PericenterDistance=1.2063440000000001
orbit_TimeAtPericenter=2458074.3139930554
orbit_good=241
orbit_visualization_period=3016.171729445092
parent=Sun
radius=5
slope_parameter=14
tex_map=nomap.png
type=comet

[2778102006fv35]
absolute_magnitude=21.800000000000001
albedo=0.14999999999999999
color=1.0, 1.0, 1.0
coord_func=comet_orbit
lighting=false
minor_planet_number=277810
name=2006 FV35
orbit_ArgOfPericenter=170.85283999999999
orbit_AscendingNode=179.50799000000001
orbit_Eccentricity=0.37755549999999999
orbit_Epoch=2457800.5
orbit_Inclination=7.1042300000000003
orbit_MeanAnomaly=169.12423000000001
orbit_MeanMotion=0.98365464000000002
orbit_SemiMajorAxis=1.0013232000000001
parent=Sun
radius=1
slope_parameter=0.14999999999999999
tex_map=nomap.png
type=asteroid

[29pschwassmannwachmann]
absolute_magnitude=4
albedo=0.1
color=1.0, 1.0, 1.0
coord_func=comet_orbit
dust_brightnessfactor=1.5
dust_lengthfactor=0.40000000000000002
dust_widthfactor=1.5
lighting=false
name=29P/Schwassmann-Wachmann
orbit_ArgOfPericenter=48.715000000000003
orbit_AscendingNode=312.41079999999999
orbit_Eccentricity=0.041742000000000001
orbit_Inclination=9.3757000000000001
orbit_PericenterDistance=5.7653460000000001
orbit_TimeAtPericenter=2458563.5993981482
orbit_good=1000
orbit_visualization_period=5389.287232495750
parent=Sun
radius=5
slope_parameter=4
tex_map=nomap.png
type=comet

[2pallas]
absolute_magnitude=4.13
albedo=0.159
color=1., 1., 1.
coord_func=comet_orbit
halo=true
lighting=true
minor_planet_number=2
name=Pallas
oblateness=0.0
orbit_ArgOfPericenter=309.98943000000003
orbit_AscendingNode=173.08828
orbit_Eccentricity=0.2310236
orbit_Epoch=2457400.5
orbit_Inclination=34.840949999999999
orbit_MeanAnomaly=163.60442
orbit_MeanMotion=0.21351535999999999
orbit_SemiMajorAxis=2.7723621999999999
orbit_visualization_period=1686.537085119438
parent=Sun
radius=220
slope_parameter=0.11
tex_map=nomap.png
type=asteroid

[2pencke]
absolute_magnitude=11.5
albedo=0.1
color=1.0, 1.0, 1.0
coord_func=comet_orbit
dust_brightnessfactor=1.5
dust_lengthfactor=0.40000000000000002
dust_widthfactor=1.5
lighting=false
name=2P/Encke
orbit_ArgOfPericenter=186.5616
orbit_AscendingNode=334.56079999999997
orbit_Eccentricity=0.84833400000000003
orbit_Inclination=11.7783
orbit_PericenterDistance=0.33590300000000001
orbit_TimeAtPericenter=2457822.5908912038
orbit_good=35
orbit_visualization_period=1203.941171884973
parent=Sun
radius=5
slope_parameter=6
tex_map=nomap.png
type=comet

[3072612002ms4]
absolute_magnitude=3.7
albedo=0.15
color=1.0, 1.0, 1.0
coord_func=comet_orbit
lighting=false
minor_planet_number=307261
name=2002 MS4
orbit_ArgOfPericenter=215.04076000000001
orbit_AscendingNode=215.91234
orbit_Eccentricity=0.1419649
orbit_Epoch=2457800.5
orbit_Inclination=17.669160000000002
orbit_MeanAnomaly=218.17359999999999
orbit_MeanMotion=0.00364445
orbit_SemiMajorAxis=41.819736200000001
orbit_visualization_period=98653.52761933634
parent=Sun
radius=625
slope_parameter=0.15
tex_map=nomap.png
type=cubewano

[3119992007ns2]
absolute_magnitude=18.100000000000001
albedo=0.14999999999999999
color=1.0, 1.0, 1.0
coord_func=comet_orbit
lighting=false
minor_planet_number=311999
name=2007 NS2
orbit_ArgOfPericenter=176.89688000000001
orbit_AscendingNode=282.48653000000002
orbit_Eccentricity=0.054075600000000001
orbit_Epoch=2457600.5
orbit_Inclination=18.619800000000001
orbit_MeanAnomaly=134.33313000000001
orbit_MeanMotion=0.52402402000000003
orbit_SemiMajorAxis=1.5237086
parent=Sun
radius=1
slope_parameter=0.14999999999999999
tex_map=nomap.png
type=asteroid

[3200phaethon]
absolute_magnitude=14.6
albedo=0.15
color=1., 1., 1.
coord_func=comet_orbit
lighting=false
minor_planet_number=3200
name=Phaethon
orbit_ArgOfPericenter=322.16242
orbit_AscendingNode=265.24124
orbit_Eccentricity=0.88991620000000005
orbit_Epoch=2457800.5
orbit_Inclination=22.248069999999998
orbit_MeanAnomaly=123.90294
orbit_MeanMotion=0.68766252999999999
orbit_SemiMajorAxis=1.2712154
orbit_visualization_period=523.5184875226332
parent=Sun
radius=5
slope_parameter=0.15
tex_map=nomap.png
type=asteroid

[32pcomassola]
absolute_magnitude=6.5
albedo=0.1
color=1.0, 1.0, 1.0
coord_func=comet_orbit
dust_brightnessfactor=1.5
dust_lengthfactor=0.40000000000000002
dust_widthfactor=1.5
lighting=false
name=32P/Comas Sola
orbit_ArgOfPericenter=53.275799999999997
orbit_AscendingNode=57.821599999999997
orbit_Eccentricity=0.55575200000000002
orbit_Inclination=9.9708000000000006
orbit_PericenterDistance=2.000737
orbit_TimeAtPericenter=2456947.7156944443
orbit_good=516
orbit_visualization_period=3491.319310301199
parent=Sun
radius=5
slope_parameter=8
tex_map=nomap.png
type=comet

[3574392004bl86]
absolute_magnitude=19
albedo=0.15
color=1.0, 1.0, 1.0
coord_func=comet_orbit
lighting=false
minor_planet_number=357439
name=2004 BL86
orbit_ArgOfPericenter=311.44355000000002
orbit_AscendingNode=126.70717999999999
orbit_Eccentricity=0.4024702
orbit_Epoch=2457800.5
orbit_Inclination=23.774190000000001
orbit_MeanAnomaly=62.219090000000001
orbit_MeanMotion=0.53523620999999999
orbit_SemiMajorAxis=1.5023544
parent=Sun
radius=1
slope_parameter=0.15
tex_map=nomap.png
type=asteroid

